{"type": "FeatureCollection", "features": [ {"type": "Feature", "properties": {"norad_id": 66620, "name": "STARLINK-35936", "group": "last-30-days", "lat": 30.820020426309547, "lon": -48.37509973198813, "alt_km": 414.5168586746486, "timestamp": "2025-12-18T19:29:51.286403+00:00", "meta": {"OBJECT_NAME": "STARLINK-35936", "OBJECT_ID": "2025-271D", "EPOCH": "2025-12-18T06:30:37.138752", "MEAN_MOTION": 15.49329114, "ECCENTRICITY": 8.502e-05, "INCLINATION": 53.1601, "RA_OF_ASC_NODE": 160.7823, "ARG_OF_PERICENTER": 76.6318, "MEAN_ANOMALY": 283.4786, "EPHEMERIS_TYPE": 0, "CLASSIFICATION_TYPE": "U", "NORAD_CAT_ID": 66620, "ELEMENT_SET_NO": 999, "REV_AT_EPOCH": 506, "BSTAR": 0.00071542612, "MEAN_MOTION_DOT": 0.00039571, "MEAN_MOTION_DDOT": 0}, "tle": {"line1": "1 66620U 25271D   25352.27126318  .00039571  00000+0  71543-3 0  9991", "line2": "2 66620  53.1601 160.7823 0000850  76.6318 283.4786 15.49329114  5067"}}, "geometry": {"type": "Point", "coordinates": [-48.37509973198813, 30.820020426309547]}}, {"type": "Feature", "properties": {"norad_id": 66621, "name": "STARLINK-35847", "group": "last-30-days", "lat": -12.131152835814255, "lon": -12.650307446005542, "alt_km": 421.0737846561433, "timestamp": "2025-12-18T19:29:51.286413+00:00", "meta": {"OBJECT_NAME": "STARLINK-35847", "OBJECT_ID": "2025-271E", "EPOCH": "2025-12-18T06:16:26.313024", "MEAN_MOTION": 15.49353563, "ECCENTRICITY": 9.456e-05, "INCLINATION": 53.1596, "RA_OF_ASC_NODE": 160.7113, "ARG_OF_PERICENTER": 77.4059, "MEAN_ANOMALY": 282.7056, "EPHEMERIS_TYPE": 0, "CLASSIFICATION_TYPE": "U", "NORAD_CAT_ID": 66621, "ELEMENT_SET_NO": 999, "REV_AT_EPOCH": 506, "BSTAR": 0.00086958215, "MEAN_MOTION_DOT": 0.0004829, "MEAN_MOTION_DDOT": 0}, "tle": {"line1": "1 66621U 25271E   25352.26141566  .00048290  00000+0  86958-3 0  9997", "line2": "2 66621  53.1596 160.7113 0000945  77.4059 282.7056 15.49353563  5066"}}, "geometry": {"type": "Point", "coordinates": [-12.650307446005542, -12.131152835814255]}}, {"type": "Feature", "properties": {"norad_id": 66622, "name": "STARLINK-35950", "group": "last-30-days", "lat": 50.721499228952496, "lon": -88.18116964340084, "alt_km": 441.9511846254554, "timestamp": "2025-12-18T19:29:51.286425+00:00", "meta": {"OBJECT_NAME": "STARLINK-35950", "OBJECT_ID": "2025-271F", "EPOCH": "2025-12-18T06:00:02.999808", "MEAN_MOTION": 15.41653631, "ECCENTRICITY": 0.00015776, "INCLINATION": 53.1602, "RA_OF_ASC_NODE": 160.9153, "ARG_OF_PERICENTER": 89.8358, "MEAN_ANOMALY": 134.9054, "EPHEMERIS_TYPE": 0, "CLASSIFICATION_TYPE": "U", "NORAD_CAT_ID": 66622, "ELEMENT_SET_NO": 999, "REV_AT_EPOCH": 512, "BSTAR": -0.063008004, "MEAN_MOTION_DOT": -0.02397099, "MEAN_MOTION_DDOT": 0}, "tle": {"line1": "1 66622U 25271F   25352.25003472 -.02397099  00000+0 -63008-1 0  9997", "line2": "2 66622  53.1602 160.9153 0001577  89.8358 134.9054 15.41653631  5126"}}, "geometry": {"type": "Point", "coordinates": [-88.18116964340084, 50.721499228952496]}}, {"type": "Feature", "properties": {"norad_id": 66623, "name": "STARLINK-35920", "group": "last-30-days", "lat": 39.90317040541458, "lon": -162.81342855275463, "alt_km": 441.51618664291436, "timestamp": "2025-12-18T19:29:51.286436+00:00", "meta": {"OBJECT_NAME": "STARLINK-35920", "OBJECT_ID": "2025-271G", "EPOCH": "2025-12-18T06:00:02.999808", "MEAN_MOTION": 15.39594449, "ECCENTRICITY": 8.877e-05, "INCLINATION": 53.1598, "RA_OF_ASC_NODE": 161.0128, "ARG_OF_PERICENTER": 96.4168, "MEAN_ANOMALY": 78.2111, "EPHEMERIS_TYPE": 0, "CLASSIFICATION_TYPE": "U", "NORAD_CAT_ID": 66623, "ELEMENT_SET_NO": 999, "REV_AT_EPOCH": 512, "BSTAR": 0.0010519091, "MEAN_MOTION_DOT": 0.00041872, "MEAN_MOTION_DDOT": 0}, "tle": {"line1": "1 66623U 25271G   25352.25003472  .00041872  00000+0  10519-2 0  9999", "line2": "2 66623  53.1598 161.0128 0000887  96.4168  78.2111 15.39594449  5123"}}, "geometry": {"type": "Point", "coordinates": [-162.81342855275463, 39.90317040541458]}}, {"type": "Feature", "properties": {"norad_id": 66624, "name": "STARLINK-35927", "group": "last-30-days", "lat": 23.683619191630687, "lon": -41.02615348265526, "alt_km": 415.4839305481719, "timestamp": "2025-12-18T19:29:51.286446+00:00", "meta": {"OBJECT_NAME": "STARLINK-35927", "OBJECT_ID": "2025-271H", "EPOCH": "2025-12-18T06:28:08.802912", "MEAN_MOTION": 15.49344315, "ECCENTRICITY": 8.36e-05, "INCLINATION": 53.1597, "RA_OF_ASC_NODE": 160.7697, "ARG_OF_PERICENTER": 82.8283, "MEAN_ANOMALY": 277.2821, "EPHEMERIS_TYPE": 0, "CLASSIFICATION_TYPE": "U", "NORAD_CAT_ID": 66624, "ELEMENT_SET_NO": 999, "REV_AT_EPOCH": 506, "BSTAR": 0.0017346453, "MEAN_MOTION_DOT": 0.00097357, "MEAN_MOTION_DDOT": 0}, "tle": {"line1": "1 66624U 25271H   25352.26954633  .00097357  00000+0  17346-2 0  9999", "line2": "2 66624  53.1597 160.7697 0000836  82.8283 277.2821 15.49344315  5069"}}, "geometry": {"type": "Point", "coordinates": [-41.02615348265526, 23.683619191630687]}}, {"type": "Feature", "properties": {"norad_id": 66625, "name": "STARLINK-35929", "group": "last-30-days", "lat": 24.085028881849038, "lon": -41.40818944577846, "alt_km": 419.82559438976386, "timestamp": "2025-12-18T19:29:51.286458+00:00", "meta": {"OBJECT_NAME": "STARLINK-35929", "OBJECT_ID": "2025-271J", "EPOCH": "2025-12-18T06:27:35.132832", "MEAN_MOTION": 15.48054242, "ECCENTRICITY": 0.00033539, "INCLINATION": 53.1597, "RA_OF_ASC_NODE": 160.7656, "ARG_OF_PERICENTER": 64.9356, "MEAN_ANOMALY": 295.2, "EPHEMERIS_TYPE": 0, "CLASSIFICATION_TYPE": "U", "NORAD_CAT_ID": 66625, "ELEMENT_SET_NO": 999, "REV_AT_EPOCH": 506, "BSTAR": -0.0023362783, "MEAN_MOTION_DOT": -0.00122881, "MEAN_MOTION_DDOT": 0}, "tle": {"line1": "1 66625U 25271J   25352.26915663 -.00122881  00000+0 -23363-2 0  9999", "line2": "2 66625  53.1597 160.7656 0003353  64.9356 295.2000 15.48054242  5069"}}, "geometry": {"type": "Point", "coordinates": [-41.40818944577846, 24.085028881849038]}}, {"type": "Feature", "properties": {"norad_id": 66626, "name": "STARLINK-35902", "group": "last-30-days", "lat": 51.78158678770221, "lon": -129.4973433209586, "alt_km": 439.2958830767466, "timestamp": "2025-12-18T19:29:51.286468+00:00", "meta": {"OBJECT_NAME": "STARLINK-35902", "OBJECT_ID": "2025-271K", "EPOCH": "2025-12-18T06:00:02.999808", "MEAN_MOTION": 15.39579811, "ECCENTRICITY": 0.00014104, "INCLINATION": 53.1602, "RA_OF_ASC_NODE": 160.9619, "ARG_OF_PERICENTER": 83.3718, "MEAN_ANOMALY": 117.0381, "EPHEMERIS_TYPE": 0, "CLASSIFICATION_TYPE": "U", "NORAD_CAT_ID": 66626, "ELEMENT_SET_NO": 999, "REV_AT_EPOCH": 512, "BSTAR": 0.0010243982, "MEAN_MOTION_DOT": 0.0004074, "MEAN_MOTION_DDOT": 0}, "tle": {"line1": "1 66626U 25271K   25352.25003472  .00040740  00000+0  10244-2 0  9990", "line2": "2 66626  53.1602 160.9619 0001410  83.3718 117.0381 15.39579811  5121"}}, "geometry": {"type": "Point", "coordinates": [-129.4973433209586, 51.78158678770221]}}, {"type": "Feature", "properties": {"norad_id": 66627, "name": "STARLINK-35904", "group": "last-30-days", "lat": 37.83324394982949, "lon": -57.39750191139149, "alt_km": 437.42007003507206, "timestamp": "2025-12-18T19:29:51.286478+00:00", "meta": {"OBJECT_NAME": "STARLINK-35904", "OBJECT_ID": "2025-271L", "EPOCH": "2025-12-18T06:00:02.999808", "MEAN_MOTION": 15.43561759, "ECCENTRICITY": 0.00012511, "INCLINATION": 53.1603, "RA_OF_ASC_NODE": 160.8713, "ARG_OF_PERICENTER": 93.6865, "MEAN_ANOMALY": 152.0152, "EPHEMERIS_TYPE": 0, "CLASSIFICATION_TYPE": "U", "NORAD_CAT_ID": 66627, "ELEMENT_SET_NO": 999, "REV_AT_EPOCH": 496, "BSTAR": -0.050446302, "MEAN_MOTION_DOT": -0.02046128, "MEAN_MOTION_DDOT": 0}, "tle": {"line1": "1 66627U 25271L   25352.25003472 -.02046128  00000+0 -50446-1 0  9998", "line2": "2 66627  53.1603 160.8713 0001251  93.6865 152.0152 15.43561759  4960"}}, "geometry": {"type": "Point", "coordinates": [-57.39750191139149, 37.83324394982949]}}, {"type": "Feature", "properties": {"norad_id": 66628, "name": "STARLINK-35862", "group": "last-30-days", "lat": 16.308501200844297, "lon": -34.51895021461642, "alt_km": 417.018388746058, "timestamp": "2025-12-18T19:29:51.286488+00:00", "meta": {"OBJECT_NAME": "STARLINK-35862", "OBJECT_ID": "2025-271M", "EPOCH": "2025-12-18T06:25:42.557088", "MEAN_MOTION": 15.49375302, "ECCENTRICITY": 0.00020689, "INCLINATION": 53.1596, "RA_OF_ASC_NODE": 160.7574, "ARG_OF_PERICENTER": 52.7687, "MEAN_ANOMALY": 307.3511, "EPHEMERIS_TYPE": 0, "CLASSIFICATION_TYPE": "U", "NORAD_CAT_ID": 66628, "ELEMENT_SET_NO": 999, "REV_AT_EPOCH": 506, "BSTAR": 0.0025571372, "MEAN_MOTION_DOT": 0.00144774, "MEAN_MOTION_DDOT": 0}, "tle": {"line1": "1 66628U 25271M   25352.26785367  .00144774  00000+0  25571-2 0  9994", "line2": "2 66628  53.1596 160.7574 0002068  52.7687 307.3511 15.49375302  5060"}}, "geometry": {"type": "Point", "coordinates": [-34.51895021461642, 16.308501200844297]}}, {"type": "Feature", "properties": {"norad_id": 66629, "name": "STARLINK-35956", "group": "last-30-days", "lat": 11.644048985065082, "lon": -30.748084648307145, "alt_km": 414.09081397242426, "timestamp": "2025-12-18T19:29:51.286498+00:00", "meta": {"OBJECT_NAME": "STARLINK-35956", "OBJECT_ID": "2025-271N", "EPOCH": "2025-12-17T22:40:33.711168", "MEAN_MOTION": 15.50068802, "ECCENTRICITY": 0.00077656, "INCLINATION": 53.1591, "RA_OF_ASC_NODE": 162.2961, "ARG_OF_PERICENTER": 69.9848, "MEAN_ANOMALY": 290.1997, "EPHEMERIS_TYPE": 0, "CLASSIFICATION_TYPE": "U", "NORAD_CAT_ID": 66629, "ELEMENT_SET_NO": 999, "REV_AT_EPOCH": 501, "BSTAR": 0.0066522353, "MEAN_MOTION_DOT": 0.00399833, "MEAN_MOTION_DDOT": 0}, "tle": {"line1": "1 66629U 25271N   25351.94483462  .00399833  00000+0  66522-2 0  9999", "line2": "2 66629  53.1591 162.2961 0007765  69.9848 290.1997 15.50068802  5019"}}, "geometry": {"type": "Point", "coordinates": [-30.748084648307145, 11.644048985065082]}}]}